{
  "type": "FeatureCollection",
  "features": [
    {
      "type": "Feature",
      "properties": {
        "norad_id": 41866,
        "name": "GOES 16",
        "group": "weather",
        "lat": -0.07003347608711824,
        "lon": -29.367865138156066,
        "alt_km": 35779.72406728879,
        "timestamp": "2025-12-25T22:42:16.639541+00:00",
        "meta_object_name": "GOES 16",
        "meta_object_id": "2016-071A",
        "meta_epoch": "2025-12-25T12:34:07.531392",
        "meta_mean_motion": 1.00271753,
        "meta_eccentricity": 0.0003194,
        "meta_inclination": 0.0771,
        "meta_ra_of_asc_node": 101.2901,
        "meta_arg_of_pericenter": 167.4094,
        "meta_mean_anomaly": 269.4528,
        "meta_ephemeris_type": 0,
        "meta_classification_type": "U",
        "meta_norad_cat_id": 41866,
        "meta_element_set_no": 999,
        "meta_rev_at_epoch": 3336,
        "meta_bstar": 0,
        "meta_mean_motion_dot": -7e-07,
        "meta_mean_motion_ddot": 0,
        "tle_line1": "1 41866U 16071A   25359.52369828 -.00000070  00000+0  00000+0 0  9993",
        "tle_line2": "2 41866   0.0771 101.2901 0003194 167.4094 269.4528  1.00271753 33361"
      },
      "geometry": {
        "type": "Point",
        "coordinates": [
          -29.367865138156066,
          -0.07003347608711824
        ]
      }
    },
    {
      "type": "Feature",
      "properties": {
        "norad_id": 41882,
        "name": "FENGYUN 4A",
        "group": "weather",
        "lat": 1.6808387939519382,
        "lon": -161.16294726361437,
        "alt_km": 35771.437591057824,
        "timestamp": "2025-12-25T22:42:16.639553+00:00",
        "meta_object_name": "FENGYUN 4A",
        "meta_object_id": "2016-077A",
        "meta_epoch": "2025-12-25T15:06:51.623424",
        "meta_mean_motion": 1.00262863,
        "meta_eccentricity": 0.0004516,
        "meta_inclination": 1.8797,
        "meta_ra_of_asc_node": 82.2647,
        "meta_arg_of_pericenter": 143.1676,
        "meta_mean_anomaly": 219.2646,
        "meta_ephemeris_type": 0,
        "meta_classification_type": "U",
        "meta_norad_cat_id": 41882,
        "meta_element_set_no": 999,
        "meta_rev_at_epoch": 3319,
        "meta_bstar": 0,
        "meta_mean_motion_dot": -3.36e-06,
        "meta_mean_motion_ddot": 0,
        "tle_line1": "1 41882U 16077A   25359.62976416 -.00000336  00000+0  00000+0 0  9990",
        "tle_line2": "2 41882   1.8797  82.2647 0004516 143.1676 219.2646  1.00262863 33194"
      },
      "geometry": {
        "type": "Point",
        "coordinates": [
          -161.16294726361437,
          1.6808387939519382
        ]
      }
    },
    {
      "type": "Feature",
      "properties": {
        "norad_id": 41884,
        "name": "CYGFM05",
        "group": "weather",
        "lat": -34.68521458233113,
        "lon": -121.26642056476123,
        "alt_km": 417.5959136713918,
        "timestamp": "2025-12-25T22:42:16.639564+00:00",
        "meta_object_name": "CYGFM05",
        "meta_object_id": "2016-078A",
        "meta_epoch": "2025-12-25T06:02:20.349024",
        "meta_mean_motion": 15.48102711,
        "meta_eccentricity": 0.0010557,
        "meta_inclination": 34.9604,
        "meta_ra_of_asc_node": 325.3743,
        "meta_arg_of_pericenter": 290.9758,
        "meta_mean_anomaly": 68.9834,
        "meta_ephemeris_type": 0,
        "meta_classification_type": "U",
        "meta_norad_cat_id": 41884,
        "meta_element_set_no": 999,
        "meta_rev_at_epoch": 50170,
        "meta_bstar": 0.00038157,
        "meta_mean_motion_dot": 0.00020682,
        "meta_mean_motion_ddot": 0,
        "tle_line1": "1 41884U 16078A   25359.25162441  .00020682  00000+0  38157-3 0  9990",
        "tle_line2": "2 41884  34.9604 325.3743 0010557 290.9758  68.9834 15.48102711501709"
      },
      "geometry": {
        "type": "Point",
        "coordinates": [
          -121.26642056476123,
          -34.68521458233113
        ]
      }
    },
    {
      "type": "Feature",
      "properties": {
        "norad_id": 41885,
        "name": "CYGFM04",
        "group": "weather",
        "lat": -33.082521237466885,
        "lon": -133.72850314125995,
        "alt_km": 410.9182705172725,
        "timestamp": "2025-12-25T22:42:16.639575+00:00",
        "meta_object_name": "CYGFM04",
        "meta_object_id": "2016-078B",
        "meta_epoch": "2025-12-25T04:28:37.063776",
        "meta_mean_motion": 15.50892129,
        "meta_eccentricity": 0.0009134,
        "meta_inclination": 34.935,
        "meta_ra_of_asc_node": 300.2129,
        "meta_arg_of_pericenter": 315.0018,
        "meta_mean_anomaly": 44.9963,
        "meta_ephemeris_type": 0,
        "meta_classification_type": "U",
        "meta_norad_cat_id": 41885,
        "meta_element_set_no": 999,
        "meta_rev_at_epoch": 50187,
        "meta_bstar": 0.00040093,
        "meta_mean_motion_dot": 0.0002399,
        "meta_mean_motion_ddot": 0,
        "tle_line1": "1 41885U 16078B   25359.18654009  .00023990  00000+0  40093-3 0  9996",
        "tle_line2": "2 41885  34.9350 300.2129 0009134 315.0018  44.9963 15.50892129501872"
      },
      "geometry": {
        "type": "Point",
        "coordinates": [
          -133.72850314125995,
          -33.082521237466885
        ]
      }
    },
    {
      "type": "Feature",
      "properties": {
        "norad_id": 41886,
        "name": "CYGFM02",
        "group": "weather",
        "lat": 4.2245564585978155,
        "lon": -60.54885725180286,
        "alt_km": 402.9235774945764,
        "timestamp": "2025-12-25T22:42:16.639589+00:00",
        "meta_object_name": "CYGFM02",
        "meta_object_id": "2016-078C",
        "meta_epoch": "2025-12-25T05:41:42.014112",
        "meta_mean_motion": 15.52312249,
        "meta_eccentricity": 0.0010765,
        "meta_inclination": 34.9439,
        "meta_ra_of_asc_node": 298.0418,
        "meta_arg_of_pericenter": 316.9249,
        "meta_mean_anomaly": 43.0631,
        "meta_ephemeris_type": 0,
        "meta_classification_type": "U",
        "meta_norad_cat_id": 41886,
        "meta_element_set_no": 999,
        "meta_rev_at_epoch": 50201,
        "meta_bstar": 0.00040919,
        "meta_mean_motion_dot": 0.00025793,
        "meta_mean_motion_ddot": 0,
        "tle_line1": "1 41886U 16078C   25359.23729183  .00025793  00000+0  40919-3 0  9999",
        "tle_line2": "2 41886  34.9439 298.0418 0010765 316.9249  43.0631 15.52312249502015"
      },
      "geometry": {
        "type": "Point",
        "coordinates": [
          -60.54885725180286,
          4.2245564585978155
        ]
      }
    },
    {
      "type": "Feature",
      "properties": {
        "norad_id": 41887,
        "name": "CYGFM01",
        "group": "weather",
        "lat": -6.355901261503713,
        "lon": -46.08975287054961,
        "alt_km": 416.6031440106608,
        "timestamp": "2025-12-25T22:42:16.639599+00:00",
        "meta_object_name": "CYGFM01",
        "meta_object_id": "2016-078D",
        "meta_epoch": "2025-12-25T15:01:01.985952",
        "meta_mean_motion": 15.48713237,
        "meta_eccentricity": 0.0010343,
        "meta_inclination": 34.9436,
        "meta_ra_of_asc_node": 325.1858,
        "meta_arg_of_pericenter": 285.9257,
        "meta_mean_anomaly": 74.0325,
        "meta_ephemeris_type": 0,
        "meta_classification_type": "U",
        "meta_norad_cat_id": 41887,
        "meta_element_set_no": 999,
        "meta_rev_at_epoch": 50170,
        "meta_bstar": 0.00040662,
        "meta_mean_motion_dot": 0.00022526,
        "meta_mean_motion_ddot": 0,
        "tle_line1": "1 41887U 16078D   25359.62571743  .00022526  00000+0  40662-3 0  9996",
        "tle_line2": "2 41887  34.9436 325.1858 0010343 285.9257  74.0325 15.48713237501705"
      },
      "geometry": {
        "type": "Point",
        "coordinates": [
          -46.08975287054961,
          -6.355901261503713
        ]
      }
    },
    {
      "type": "Feature",
      "properties": {
        "norad_id": 41888,
        "name": "CYGFM08",
        "group": "weather",
        "lat": 34.73280893653649,
        "lon": 42.80881571197147,
        "alt_km": 416.55175595484434,
        "timestamp": "2025-12-25T22:42:16.639610+00:00",
        "meta_object_name": "CYGFM08",
        "meta_object_id": "2016-078E",
        "meta_epoch": "2025-12-25T06:50:09.300768",
        "meta_mean_motion": 15.49937815,
        "meta_eccentricity": 0.001146,
        "meta_inclination": 34.9463,
        "meta_ra_of_asc_node": 310.2611,
        "meta_arg_of_pericenter": 307.0828,
        "meta_mean_anomaly": 52.8846,
        "meta_ephemeris_type": 0,
        "meta_classification_type": "U",
        "meta_norad_cat_id": 41888,
        "meta_element_set_no": 999,
        "meta_rev_at_epoch": 50188,
        "meta_bstar": 0.0003946,
        "meta_mean_motion_dot": 0.00022839,
        "meta_mean_motion_ddot": 0,
        "tle_line1": "1 41888U 16078E   25359.28482987  .00022839  00000+0  39460-3 0  9991",
        "tle_line2": "2 41888  34.9463 310.2611 0011460 307.0828  52.8846 15.49937815501881"
      },
      "geometry": {
        "type": "Point",
        "coordinates": [
          42.80881571197147,
          34.73280893653649
        ]
      }
    }
  ]
}